KUIPER-00133            
1 65764U 25217C   25334.58335648 -.00039258  00000+0 -47479-2 0  9995
2 65764  51.8983 131.3626 0011644 355.6136  41.8242 14.83262984  5161
KUIPER-00139            
1 65765U 25217D   25334.58335648 -.00023700  00000+0 -17396-2 0  9996
2 65765  51.8829 127.5700 0007255 338.1269 105.3838 15.02708321  4794
KUIPER-00142            
1 65766U 25217E   25333.72634114  .00032394  00000+0  87546-3 0  9994
2 65766  51.8675 127.2655 0002704 307.3414  52.7326 15.37440705 10043
KUIPER-00145            
1 65767U 25217F   25334.58335648 -.00488903  00000+0 -19231-1 0  9997
2 65767  51.8760 123.5910 0006537 307.4846 233.4007 15.27260044  4211
KUIPER-00147            
1 65768U 25217G   25334.58335648 -.00797964  00000+0 -40776-1 0  9996
2 65768  51.8773 124.5753 0009398 332.7982  58.7226 15.18852283  4080
KUIPER-00148            
1 65769U 25217H   25334.58335648 -.01165108  00000+0 -52392-1 0  9994
2 65769  51.8666 124.6834 0007309 353.2669  24.9643 15.23356458  2617
KUIPER-00150            
1 65770U 25217J   25334.58335648 -.00427156  00000+0 -43246-1 0  9997
2 65770  51.8971 129.2518 0008989 340.7838 226.6540 14.92559302  4608
KUIPER-00151            
1 65771U 25217K   25334.58335648 -.00042375  00000+0 -21510-2 0  9995
2 65771  51.8745 125.0443 0002451 307.0297 284.8445 15.16388366  5701
